INTELSAT 36 (IS-36)     
1 41747U 16053A   26063.09924076  .00000000  00000+0  00000+0 0  9990
2 41747   0.0219 121.5610 0001173 212.7088 291.8246  1.00268708 34903
INTELSAT 33E (IS-33E)   
1 41748U 16053B   26063.10305411 -.00000196  00000+0  00000+0 0  9996
2 41748   1.3031  85.8023 0024490 189.7901  10.8959  1.00165311 35192
INSAT-3DR               
1 41752U 16054A   26063.03636441 -.00000090  00000+0  00000+0 0  9997
2 41752   0.0462  96.8444 0013284 184.8908 327.1218  1.00272377 34767
GSAT-18                 
1 41793U 16060A   26063.03636441  .00000000  00000+0  00000+0 0  9999
2 41793   0.0254 160.6367 0003324 238.4665 209.7768  1.00269409 34470
SKY MUSTER 2 (NBN1B)    
1 41794U 16060B   26062.97177001  .00000000  00000+0  00000+0 0  9994
2 41794   0.0210 167.4455 0001650 184.8653 304.0673  1.00268192 34468
HIMAWARI-9              
1 41836U 16064A   26062.97090335 -.00000288  00000+0  00000+0 0  9998
2 41836   0.0152 182.6424 0001152 183.5546 285.8263  1.00272405 34158
SHIJIAN-17 (SJ-17)      
1 41838U 16065A   26063.09178737  .00000107  00000+0  00000+0 0  9997
2 41838   5.4858  73.8698 0000931 304.3991 207.4871  0.99861036 34153
YZ-2 R/B                
1 41840U 16065C   26062.52592257 -.00000139  00000+0  00000+0 0  9990
2 41840   9.0908  67.6735 0467124 229.5540 126.4252  0.93473260 31864
GOES 16                 
1 41866U 16071A   26063.13624759 -.00000103  00000+0  00000+0 0  9997
2 41866   0.1467  90.1405 0002533 217.9627 158.1288  1.00271707 34051
TIANLIAN 1-04           
1 41869U 16072A   26063.13516954  .00000018  00000+0  00000+0 0  9992
2 41869   0.5954  83.5619 0040779  95.5448 208.1778  1.00273165 34248
WGS F8 (USA 272)        
1 41879U 16075A   26062.97272334 -.00000216  00000+0  00000+0 0  9999
2 41879   0.0081 175.8057 0000231 283.8213 202.0760  1.00269906 33765
FENGYUN 4A              
1 41882U 16077A   26063.13308794 -.00000369  00000+0  00000+0 0  9993
2 41882   2.0552  81.4150 0007465 135.8137 116.1229  1.00279325 33870
ECHOSTAR 19             
1 41893U 16079A   26063.18586576 -.00000151  00000+0  00000+0 0  9997
2 41893   0.0147 118.8209 0001615 225.6472 147.2737  1.00271101 33650
JCSAT-110A (JCSAT-15)   
1 41903U 16082A   26063.03614713 -.00000364  00000+0  00000+0 0  9998
2 41903   0.0144 143.4488 0000578 213.3546 288.0533  1.00271059 33701
STAR ONE D1             
1 41904U 16082B   26063.17405784 -.00000223  00000+0  00000+0 0  9994
2 41904   0.0200 101.4338 0002167 246.1356 153.0082  1.00271275 33724
TJS-2                   
1 41911U 17001A   26063.09880743 -.00000019  00000+0  00000+0 0  9990
2 41911   0.5619  86.9601 0001819 248.0997 288.8848  1.00271677 33662
YZ-1 R/B                
1 41929U 15019C   26066.67644859 -.00000549  00000+0  00000+0 0  9997
2 41929  11.8039 106.0565 6832521 296.2495 358.3508  0.27917065 10488
