[{"OBJECT_NAME":"INTELSAT 36 (IS-36)","OBJECT_ID":"2016-053A","EPOCH":"2026-03-04T02:22:54.401664","MEAN_MOTION":1.00268708,"ECCENTRICITY":0.0001173,"INCLINATION":0.0219,"RA_OF_ASC_NODE":121.561,"ARG_OF_PERICENTER":212.7088,"MEAN_ANOMALY":291.8246,"EPHEMERIS_TYPE":0,"CLASSIFICATION_TYPE":"U","NORAD_CAT_ID":41747,"ELEMENT_SET_NO":999,"REV_AT_EPOCH":3490,"BSTAR":0,"MEAN_MOTION_DOT":0,"MEAN_MOTION_DDOT":0},{"OBJECT_NAME":"INTELSAT 33E (IS-33E)","OBJECT_ID":"2016-053B","EPOCH":"2026-03-04T02:28:23.875104","MEAN_MOTION":1.00165311,"ECCENTRICITY":0.002449,"INCLINATION":1.3031,"RA_OF_ASC_NODE":85.8023,"ARG_OF_PERICENTER":189.7901,"MEAN_ANOMALY":10.8959,"EPHEMERIS_TYPE":0,"CLASSIFICATION_TYPE":"U","NORAD_CAT_ID":41748,"ELEMENT_SET_NO":999,"REV_AT_EPOCH":3519,"BSTAR":0,"MEAN_MOTION_DOT":-1.96e-6,"MEAN_MOTION_DDOT":0},{"OBJECT_NAME":"INSAT-3DR","OBJECT_ID":"2016-054A","EPOCH":"2026-03-04T00:52:21.885024","MEAN_MOTION":1.00272377,"ECCENTRICITY":0.0013284,"INCLINATION":0.0462,"RA_OF_ASC_NODE":96.8444,"ARG_OF_PERICENTER":184.8908,"MEAN_ANOMALY":327.1218,"EPHEMERIS_TYPE":0,"CLASSIFICATION_TYPE":"U","NORAD_CAT_ID":41752,"ELEMENT_SET_NO":999,"REV_AT_EPOCH":3476,"BSTAR":0,"MEAN_MOTION_DOT":-9.0e-7,"MEAN_MOTION_DDOT":0},{"OBJECT_NAME":"GSAT-18","OBJECT_ID":"2016-060A","EPOCH":"2026-03-04T00:52:21.885024","MEAN_MOTION":1.00269409,"ECCENTRICITY":0.0003324,"INCLINATION":0.0254,"RA_OF_ASC_NODE":160.6367,"ARG_OF_PERICENTER":238.4665,"MEAN_ANOMALY":209.7768,"EPHEMERIS_TYPE":0,"CLASSIFICATION_TYPE":"U","NORAD_CAT_ID":41793,"ELEMENT_SET_NO":999,"REV_AT_EPOCH":3447,"BSTAR":0,"MEAN_MOTION_DOT":0,"MEAN_MOTION_DDOT":0},{"OBJECT_NAME":"SKY MUSTER 2 (NBN1B)","OBJECT_ID":"2016-060B","EPOCH":"2026-03-03T23:19:20.928864","MEAN_MOTION":1.00268192,"ECCENTRICITY":0.000165,"INCLINATION":0.021,"RA_OF_ASC_NODE":167.4455,"ARG_OF_PERICENTER":184.8653,"MEAN_ANOMALY":304.0673,"EPHEMERIS_TYPE":0,"CLASSIFICATION_TYPE":"U","NORAD_CAT_ID":41794,"ELEMENT_SET_NO":999,"REV_AT_EPOCH":3446,"BSTAR":0,"MEAN_MOTION_DOT":0,"MEAN_MOTION_DDOT":0},{"OBJECT_NAME":"HIMAWARI-9","OBJECT_ID":"2016-064A","EPOCH":"2026-03-03T23:18:06.049440","MEAN_MOTION":1.00272405,"ECCENTRICITY":0.0001152,"INCLINATION":0.0152,"RA_OF_ASC_NODE":182.6424,"ARG_OF_PERICENTER":183.5546,"MEAN_ANOMALY":285.8263,"EPHEMERIS_TYPE":0,"CLASSIFICATION_TYPE":"U","NORAD_CAT_ID":41836,"ELEMENT_SET_NO":999,"REV_AT_EPOCH":3415,"BSTAR":0,"MEAN_MOTION_DOT":-2.88e-6,"MEAN_MOTION_DDOT":0},{"OBJECT_NAME":"SHIJIAN-17 (SJ-17)","OBJECT_ID":"2016-065A","EPOCH":"2026-03-04T02:12:10.428768","MEAN_MOTION":0.99861036,"ECCENTRICITY":9.31e-5,"INCLINATION":5.4858,"RA_OF_ASC_NODE":73.8698,"ARG_OF_PERICENTER":304.3991,"MEAN_ANOMALY":207.4871,"EPHEMERIS_TYPE":0,"CLASSIFICATION_TYPE":"U","NORAD_CAT_ID":41838,"ELEMENT_SET_NO":999,"REV_AT_EPOCH":3415,"BSTAR":0,"MEAN_MOTION_DOT":1.07e-6,"MEAN_MOTION_DDOT":0},{"OBJECT_NAME":"YZ-2 R/B","OBJECT_ID":"2016-065C","EPOCH":"2026-03-03T12:37:19.710048","MEAN_MOTION":0.9347326,"ECCENTRICITY":0.0467124,"INCLINATION":9.0908,"RA_OF_ASC_NODE":67.6735,"ARG_OF_PERICENTER":229.554,"MEAN_ANOMALY":126.4252,"EPHEMERIS_TYPE":0,"CLASSIFICATION_TYPE":"U","NORAD_CAT_ID":41840,"ELEMENT_SET_NO":999,"REV_AT_EPOCH":3186,"BSTAR":0,"MEAN_MOTION_DOT":-1.39e-6,"MEAN_MOTION_DDOT":0},{"OBJECT_NAME":"GOES 16","OBJECT_ID":"2016-071A","EPOCH":"2026-03-04T03:16:11.791776","MEAN_MOTION":1.00271707,"ECCENTRICITY":0.0002533,"INCLINATION":0.1467,"RA_OF_ASC_NODE":90.1405,"ARG_OF_PERICENTER":217.9627,"MEAN_ANOMALY":158.1288,"EPHEMERIS_TYPE":0,"CLASSIFICATION_TYPE":"U","NORAD_CAT_ID":41866,"ELEMENT_SET_NO":999,"REV_AT_EPOCH":3405,"BSTAR":0,"MEAN_MOTION_DOT":-1.03e-6,"MEAN_MOTION_DDOT":0},{"OBJECT_NAME":"TIANLIAN 1-04","OBJECT_ID":"2016-072A","EPOCH":"2026-03-04T03:14:38.648256","MEAN_MOTION":1.00273165,"ECCENTRICITY":0.0040779,"INCLINATION":0.5954,"RA_OF_ASC_NODE":83.5619,"ARG_OF_PERICENTER":95.5448,"MEAN_ANOMALY":208.1778,"EPHEMERIS_TYPE":0,"CLASSIFICATION_TYPE":"U","NORAD_CAT_ID":41869,"ELEMENT_SET_NO":999,"REV_AT_EPOCH":3424,"BSTAR":0,"MEAN_MOTION_DOT":1.8e-7,"MEAN_MOTION_DDOT":0},{"OBJECT_NAME":"WGS F8 (USA 272)","OBJECT_ID":"2016-075A","EPOCH":"2026-03-03T23:20:43.296576","MEAN_MOTION":1.00269906,"ECCENTRICITY":2.31e-5,"INCLINATION":0.0081,"RA_OF_ASC_NODE":175.8057,"ARG_OF_PERICENTER":283.8213,"MEAN_ANOMALY":202.076,"EPHEMERIS_TYPE":0,"CLASSIFICATION_TYPE":"U","NORAD_CAT_ID":41879,"ELEMENT_SET_NO":999,"REV_AT_EPOCH":3376,"BSTAR":0,"MEAN_MOTION_DOT":-2.16e-6,"MEAN_MOTION_DDOT":0},{"OBJECT_NAME":"FENGYUN 4A","OBJECT_ID":"2016-077A","EPOCH":"2026-03-04T03:11:38.798016","MEAN_MOTION":1.00279325,"ECCENTRICITY":0.0007465,"INCLINATION":2.0552,"RA_OF_ASC_NODE":81.415,"ARG_OF_PERICENTER":135.8137,"MEAN_ANOMALY":116.1229,"EPHEMERIS_TYPE":0,"CLASSIFICATION_TYPE":"U","NORAD_CAT_ID":41882,"ELEMENT_SET_NO":999,"REV_AT_EPOCH":3387,"BSTAR":0,"MEAN_MOTION_DOT":-3.69e-6,"MEAN_MOTION_DDOT":0},{"OBJECT_NAME":"ECHOSTAR 19","OBJECT_ID":"2016-079A","EPOCH":"2026-03-04T04:27:38.801664","MEAN_MOTION":1.00271101,"ECCENTRICITY":0.0001615,"INCLINATION":0.0147,"RA_OF_ASC_NODE":118.8209,"ARG_OF_PERICENTER":225.6472,"MEAN_ANOMALY":147.2737,"EPHEMERIS_TYPE":0,"CLASSIFICATION_TYPE":"U","NORAD_CAT_ID":41893,"ELEMENT_SET_NO":999,"REV_AT_EPOCH":3365,"BSTAR":0,"MEAN_MOTION_DOT":-1.51e-6,"MEAN_MOTION_DDOT":0},{"OBJECT_NAME":"JCSAT-110A (JCSAT-15)","OBJECT_ID":"2016-082A","EPOCH":"2026-03-04T00:52:03.112032","MEAN_MOTION":1.00271059,"ECCENTRICITY":5.78e-5,"INCLINATION":0.0144,"RA_OF_ASC_NODE":143.4488,"ARG_OF_PERICENTER":213.3546,"MEAN_ANOMALY":288.0533,"EPHEMERIS_TYPE":0,"CLASSIFICATION_TYPE":"U","NORAD_CAT_ID":41903,"ELEMENT_SET_NO":999,"REV_AT_EPOCH":3370,"BSTAR":0,"MEAN_MOTION_DOT":-3.64e-6,"MEAN_MOTION_DDOT":0},{"OBJECT_NAME":"STAR ONE D1","OBJECT_ID":"2016-082B","EPOCH":"2026-03-04T04:10:38.597376","MEAN_MOTION":1.00271275,"ECCENTRICITY":0.0002167,"INCLINATION":0.02,"RA_OF_ASC_NODE":101.4338,"ARG_OF_PERICENTER":246.1356,"MEAN_ANOMALY":153.0082,"EPHEMERIS_TYPE":0,"CLASSIFICATION_TYPE":"U","NORAD_CAT_ID":41904,"ELEMENT_SET_NO":999,"REV_AT_EPOCH":3372,"BSTAR":0,"MEAN_MOTION_DOT":-2.23e-6,"MEAN_MOTION_DDOT":0},{"OBJECT_NAME":"TJS-2","OBJECT_ID":"2017-001A","EPOCH":"2026-03-04T02:22:16.961952","MEAN_MOTION":1.00271677,"ECCENTRICITY":0.0001819,"INCLINATION":0.5619,"RA_OF_ASC_NODE":86.9601,"ARG_OF_PERICENTER":248.0997,"MEAN_ANOMALY":288.8848,"EPHEMERIS_TYPE":0,"CLASSIFICATION_TYPE":"U","NORAD_CAT_ID":41911,"ELEMENT_SET_NO":999,"REV_AT_EPOCH":3366,"BSTAR":0,"MEAN_MOTION_DOT":-1.9e-7,"MEAN_MOTION_DDOT":0},{"OBJECT_NAME":"YZ-1 R/B","OBJECT_ID":"2015-019C","EPOCH":"2026-03-07T16:14:05.158176","MEAN_MOTION":0.27917065,"ECCENTRICITY":0.6832521,"INCLINATION":11.8039,"RA_OF_ASC_NODE":106.0565,"ARG_OF_PERICENTER":296.2495,"MEAN_ANOMALY":358.3508,"EPHEMERIS_TYPE":0,"CLASSIFICATION_TYPE":"U","NORAD_CAT_ID":41929,"ELEMENT_SET_NO":999,"REV_AT_EPOCH":1048,"BSTAR":0,"MEAN_MOTION_DOT":-5.49e-6,"MEAN_MOTION_DDOT":0}]
